{"type": "FeatureCollection", "features": [{"type": "Feature", "geometry": {"type": "Polygon", "coordinates": [[[-105.034648924516, 39.7695900413651], [-105.025244734099, 39.7693415039394], [-105.011196278755, 39.769320790516], [-105.004171655619, 39.7693207906776], [-105.001764114074, 39.7693276944508], [-104.996436774698, 39.7693207888314], [-104.996433207321, 39.7693207096244], [-104.995768453642, 39.7692930914037], [-104.995759535507, 39.7692922831356], [-104.995747574171, 39.7692897550691], [-104.995735755665, 39.7692853812475], [-104.995106326505, 39.7689881970563], [-104.995097424392, 39.7689832259265], [-104.995088703556, 39.7689764209161], [-104.995081646552, 39.7689685512484], [-104.995080634358, 39.7689671328608], [-104.994838088835, 39.7686149909213], [-104.994833922105, 39.7686077136691], [-104.994830779214, 39.7685984557413], [-104.994829767579, 39.7685888629045], [-104.994847731815, 39.7667457919847], [-104.994749068929, 39.7611194308853], [-104.994315498252, 39.7600107077727], [-104.993679171182, 39.7593650095131], [-104.993573441016, 39.7593889141719], [-104.993565404216, 39.7593903467844], [-104.99355304498, 39.7593911276278], [-104.993540697792, 39.7593902404815], [-104.993528738225, 39.7593877121802], [-104.993517529825, 39.759383619044], [-104.993507412447, 39.7593780859272], [-104.993504483989, 39.7593760576271], [-104.993127191973, 39.7590998301095], [-104.993125279317, 39.759098376298], [-104.989811219927, 39.756481629628], [-104.988904634777, 39.7558053725235], [-104.988903100717, 39.7558041922876], [-104.98804071738, 39.7551204897284], [-104.988037129379, 39.755117421746], [-104.987321122671, 39.7544568715834], [-104.984557299357, 39.7524355140104], [-104.984555258277, 39.7524339595174], [-104.983693388691, 39.7517506305343], [-104.978186941645, 39.747558453056], [-104.977486157728, 39.7470127331813], [-104.974710453224, 39.7448716196842], [-104.973354044708, 39.7438286713263], [-104.972635475272, 39.7432761516609], [-104.968413476116, 39.7400504271944], [-104.96840875799, 39.740046448303], [-104.968401706891, 39.7400385769514], [-104.968396533366, 39.7400298800543], [-104.968393395246, 39.7400206213227], [-104.968392387229, 39.740011082196], [-104.968393539782, 39.7400015528299], [-104.968396818041, 39.7399923230852], [-104.968402123045, 39.7399836735261], [-104.968409292975, 39.739975866419], [-104.968418110204, 39.7399691385595], [-104.968428306015, 39.7399636949885], [-104.96843957116, 39.7399597009338], [-104.968451564052, 39.7399572782452], [-104.968463920142, 39.7399565000319], [-104.968476263591, 39.7399573898151], [-104.968488218941, 39.73995992068], [-104.968499422776, 39.7399640162289], [-104.96850953538, 39.7399695515348], [-104.968513531902, 39.7399723796999], [-104.972735693361, 39.7431982256902], [-104.973454426349, 39.7437508706853], [-104.974810924169, 39.7447938876667], [-104.977586878082, 39.7469351918065], [-104.978287361544, 39.7474806782918], [-104.983794298108, 39.7516732298213], [-104.984656187517, 39.7523565644764], [-104.987421959362, 39.7543793450302], [-104.987427590819, 39.7543839692858], [-104.988144521585, 39.7550453712687], [-104.989004271327, 39.7557269856051], [-104.989910801876, 39.7564032011953], [-104.989912237344, 39.7564043035328], [-104.993226087985, 39.7590208826129], [-104.993572711875, 39.7592746565789], [-104.993686155319, 39.7592490071776], [-104.993694192101, 39.7592475745567], [-104.99370655131, 39.7592467936984], [-104.993718898475, 39.7592476808274], [-104.993730858025, 39.7592502091095], [-104.993742066416, 39.7592543022256], [-104.993752183795, 39.7592598353225], [-104.993760903293, 39.7592666404567], [-104.993762775992, 39.7592684588571], [-104.994436513459, 39.7599521184732], [-104.994441696748, 39.7599581698172], [-104.994446874974, 39.7599668655046], [-104.994447996172, 39.7599694930696], [-104.994888171326, 39.7610950991652], [-104.994890192656, 39.7611017295579], [-104.994891199297, 39.7611102199812], [-104.994990019175, 39.7667448839551], [-104.994990024071, 39.7667459863927], [-104.994972193427, 39.7685757307288], [-104.995197165282, 39.7689023568164], [-104.995794067789, 39.7691841889731], [-104.996438995514, 39.7692109837044], [-105.001763940937, 39.7692178863326], [-105.004171393506, 39.7692109831045], [-105.011196417639, 39.7692109828683], [-105.02524624686, 39.7692316983039], [-105.025248435023, 39.7692317305455], [-105.034651779871, 39.7694802454883], [-105.044010809088, 39.769321466985], [-105.053237460622, 39.7692800335281], [-105.053250194295, 39.7692809140649], [-105.0532621577, 39.7692834362883], [-105.053273371169, 39.7692875237194], [-105.053283494692, 39.7692930516773], [-105.053292221215, 39.7692998523745], [-105.053299284785, 39.7693077185502], [-105.053304471001, 39.7693164116161], [-105.053307621645, 39.7693256679784], [-105.053308641637, 39.7693352062695], [-105.053307500145, 39.7693447363591], [-105.053304231694, 39.7693539683644], [-105.053298934945, 39.7693626216528], [-105.053291771466, 39.7693704338434], [-105.053282958688, 39.7693771679859], [-105.053272765192, 39.7693826188471], [-105.053261500158, 39.7693866209774], [-105.053249505167, 39.7693890522819], [-105.053237912811, 39.7693898396014], [-105.044012769996, 39.7694312645807], [-105.034652916012, 39.7695900607457], [-105.034650991314, 39.7695900729522], [-105.034648924516, 39.7695900413651]]]}, "properties": {"name": "38th/Park Ave BRT", "source_name": "38th/Park Ave BRT", "plan": "Denver Moves Transit 2.0", "investment_level": "Medium Investment BRT"}}, {"type": "Feature", "geometry": {"type": "Polygon", "coordinates": [[[-104.98730221654, 39.7489581874255], [-104.986055688475, 39.747979390488], [-104.986051667256, 39.747975953068], [-104.98604461338, 39.7479680827969], [-104.986039437081, 39.747959386701], [-104.986036296277, 39.7479501284671], [-104.986035285372, 39.7479411182136], [-104.986026305145, 39.7461938835655], [-104.98600834245, 39.7448885968135], [-104.986008340279, 39.7448876195717], [-104.98602630323, 39.7432993419599], [-104.98600834442, 39.7416762007738], [-104.986008371626, 39.7416745580596], [-104.986044309498, 39.7407004842191], [-104.986071222106, 39.740065877052], [-104.986062247492, 39.7384508243357], [-104.986026324991, 39.7368209430862], [-104.9860263235, 39.7368192362956], [-104.986071233023, 39.7352788715704], [-104.986089204746, 39.729089448685], [-104.986098191213, 39.7265814455817], [-104.986098284931, 39.726578843023], [-104.986161076314, 39.7256405931205], [-104.986170068385, 39.7183522700818], [-104.986250931913, 39.7129756266202], [-104.986304813565, 39.7111587429477], [-104.986206017079, 39.7027900873967], [-104.986207166077, 39.7027801515152], [-104.986210440254, 39.7027709211501], [-104.986215076038, 39.7027631675579], [-104.986475919345, 39.7024033287532], [-104.986483415529, 39.7023950715446], [-104.98649074179, 39.7023893202105], [-104.98729576935, 39.7018440084904], [-104.987400689672, 39.7009324397883], [-104.98740068486, 39.7009307041392], [-104.987401087846, 39.7009259772772], [-104.987400777705, 39.7002122940098], [-104.987355868341, 39.6966322345743], [-104.987355867121, 39.6966312843405], [-104.987400787853, 39.6930161409005], [-104.987499617112, 39.6785197578592], [-104.987508611856, 39.6676781318822], [-104.987509761633, 39.6676684642808], [-104.987513034, 39.6676592337658], [-104.987518331184, 39.667650583122], [-104.987525491601, 39.667642774649], [-104.987534297914, 39.6676360451838], [-104.987544481739, 39.6676305998161], [-104.987555734189, 39.6676266038286], [-104.987567714065, 39.6676241791292], [-104.987580057214, 39.6676233988886], [-104.987592388187, 39.6676242866895], [-104.987604331909, 39.6676268156773], [-104.987615525316, 39.6676309095116], [-104.987625629008, 39.6676364433173], [-104.987634336533, 39.6676432491294], [-104.987641382517, 39.6676511195314], [-104.987646553093, 39.6676598158065], [-104.987649690518, 39.6676690742633], [-104.987650700951, 39.6676783387611], [-104.987641726956, 39.6785201286697], [-104.987542924486, 39.6930170225097], [-104.987498016709, 39.6966317138806], [-104.98754293121, 39.7002117435304], [-104.987542820284, 39.700929156512], [-104.987542939977, 39.7009309683195], [-104.987542680777, 39.7009356462706], [-104.987605784289, 39.7025326085643], [-104.987605815736, 39.7025340507039], [-104.987650736695, 39.7111594415647], [-104.987614806084, 39.7129771505663], [-104.987569897018, 39.7183529369633], [-104.987515998318, 39.7256427652513], [-104.987489057638, 39.7266651694781], [-104.987489057378, 39.7272726750663], [-104.987480076323, 39.7290828450129], [-104.987462115251, 39.7352864893433], [-104.98746211551, 39.7368617964281], [-104.987435173031, 39.7384641712797], [-104.987453135004, 39.7400595191631], [-104.987453138305, 39.7407159798531], [-104.987453137587, 39.7407574244679], [-104.987453139014, 39.7414688973721], [-104.98745313891, 39.7416761221989], [-104.987453139644, 39.7429954329066], [-104.987453140398, 39.743305985807], [-104.987471106295, 39.7448879288122], [-104.98747105926, 39.7448900542001], [-104.987462124576, 39.7450755344906], [-104.987462126031, 39.7461720689358], [-104.987489054614, 39.7470209420516], [-104.987489069189, 39.7470229389097], [-104.987444135696, 39.7489348945181], [-104.987444149987, 39.7489361321058], [-104.98746212562, 39.7502402520495], [-104.987462124135, 39.7502414130106], [-104.987435189604, 39.7515945593981], [-104.987453142365, 39.7526228308657], [-104.987453138247, 39.7526243520833], [-104.987444165518, 39.7529280764322], [-104.987444166756, 39.7543992619242], [-104.988146337881, 39.7550470481116], [-104.988153488911, 39.7550550069203], [-104.988158665995, 39.7550637029003], [-104.988161807398, 39.7550729610531], [-104.988162818321, 39.7550824999571], [-104.988161668206, 39.7550920294635], [-104.988158391844, 39.755101259707], [-104.988153088133, 39.7551099101082], [-104.988145918854, 39.7551177183743], [-104.988137101613, 39.7551244476742], [-104.988126905127, 39.7551298929223], [-104.988115638667, 39.7551338888391], [-104.988103643859, 39.7551363135181], [-104.988091285312, 39.7551370937893], [-104.988078938942, 39.7551362060686], [-104.988066980298, 39.7551336772083], [-104.988055772897, 39.7551295835455], [-104.988045656564, 39.7551240499505], [-104.988037129379, 39.755117421746], [-104.987318381462, 39.7544543422655], [-104.987311231756, 39.7544463834094], [-104.987306054822, 39.7544376873902], [-104.98730291356, 39.7544284292124], [-104.987301901666, 39.7544192001249], [-104.987301903216, 39.752927294679], [-104.987301921745, 39.7529261968403], [-104.987310876078, 39.7526233172498], [-104.987292928543, 39.7515952547304], [-104.987292926495, 39.7515939388387], [-104.987319866691, 39.7502407123363], [-104.98730221654, 39.7489581874255]], [[-104.987463661091, 39.7025352308557], [-104.987437046921, 39.7018565566282], [-104.987434860142, 39.7018756209869], [-104.987433986455, 39.7018806160027], [-104.987430712481, 39.7018898464047], [-104.987425412702, 39.7018984969407], [-104.987418248779, 39.7019063053138], [-104.987410922644, 39.7019120567066], [-104.986593657712, 39.7024656588611], [-104.98634834453, 39.7028040834199], [-104.986446995906, 39.7111590377671], [-104.986446980181, 39.7111603896281], [-104.986393092239, 39.7129775201088], [-104.986312257585, 39.7183529820461], [-104.986303279333, 39.7256422318907], [-104.986303186428, 39.7256448839915], [-104.986240394318, 39.7265831735867], [-104.986231418909, 39.7290897239283], [-104.986213457748, 39.7352797367703], [-104.986213439787, 39.7352807553588], [-104.986168556758, 39.7368201592163], [-104.98620447121, 39.7384496792017], [-104.986213461489, 39.7400667035429], [-104.986213425271, 39.7400684624061], [-104.986186477229, 39.7407039412994], [-104.986150590913, 39.7416766616825], [-104.98616854735, 39.7432994614659], [-104.986150588245, 39.7448879723769], [-104.986168549284, 39.7461930501322], [-104.986177420811, 39.7479183411607], [-104.98730498983, 39.7488037294886], [-104.987346810827, 39.7470224588998], [-104.987319899071, 39.7461740730826], [-104.987319877393, 39.7461727291819], [-104.9873198788, 39.7450743519591], [-104.987319927582, 39.7450724670592], [-104.987328850324, 39.7448872353119], [-104.987310898621, 39.7433065028402], [-104.987310897608, 39.7429954329482], [-104.987310899551, 39.7416761222405], [-104.987310900075, 39.7414688974137], [-104.987310900097, 39.7407574236088], [-104.987310900899, 39.7407159789941], [-104.987310901043, 39.7400600271954], [-104.987292938534, 39.7384645567822], [-104.987292939924, 39.7384635687456], [-104.987319888506, 39.736861122785], [-104.987319888578, 39.7352863669024], [-104.987337862602, 39.7290825118359], [-104.987346847816, 39.7272724346722], [-104.987346848295, 39.7266644292017], [-104.987346862323, 39.7266634673356], [-104.98737380335, 39.7256412991116], [-104.987427707489, 39.7183522697506], [-104.987472632306, 39.7129759781433], [-104.987508560208, 39.7111588248797], [-104.987463661091, 39.7025352308557]]]}, "properties": {"name": "Broadway/Lincoln BRT", "source_name": "Broadway/Lincoln BRT", "plan": "Denver Moves Transit 2.0", "investment_level": "High Investment BRT"}}, {"type": "Feature", "geometry": {"type": "Polygon", "coordinates": [[[-104.884642029425, 39.7402835474369], [-104.884635277081, 39.740010399888], [-104.898043049403, 39.7400127779964], [-104.957875943974, 39.7400698046626], [-104.959592033996, 39.7398142571299], [-104.987786785145, 39.7398687820175], [-104.987768983927, 39.7402317681137], [-104.959940279609, 39.7400939240791], [-104.95793078503, 39.740325949871], [-104.884642029425, 39.7402835474369]]]}, "properties": {"name": "Colfax Avenue BRT", "source_name": "East Colfax Avenue BRT", "plan": "East Colfax Corridor Bus Rapid Transit", "investment_level": "High Investment BRT"}}, {"type": "Feature", "geometry": {"type": "Polygon", "coordinates": [[[-104.988762377703, 39.7406237509512], [-104.988088199102, 39.7402826926258], [-104.987361353608, 39.7401122934928], [-104.98735731765, 39.7401112446356], [-104.987346112691, 39.7401071508825], [-104.98733599858, 39.7401016171957], [-104.987327282088, 39.7400948115373], [-104.987320228862, 39.7400869413197], [-104.987315052987, 39.7400782452547], [-104.987311912367, 39.740068987028], [-104.987310901777, 39.7400594480636], [-104.98731205176, 39.7400499185127], [-104.987315327531, 39.7400406882413], [-104.987320630206, 39.7400320378296], [-104.987327798035, 39.7400242295702], [-104.987336613455, 39.7400175002934], [-104.987346807805, 39.7400120550833], [-104.987358071879, 39.7400080592178], [-104.987370064126, 39.7400056346011], [-104.987382420015, 39.7400048544013], [-104.987394763712, 39.7400057422001], [-104.9874026838, 39.7400072222871], [-104.988139302154, 39.7401799126757], [-104.988143338128, 39.740180961506], [-104.988154543146, 39.7401850551831], [-104.988157617057, 39.7401865249475], [-104.988815848444, 39.7405195156096], [-104.989166548398, 39.7404643563017], [-104.98994416001, 39.7400091032688], [-104.989951920177, 39.7400051487103], [-104.989963184102, 39.7400011525954], [-104.989975176257, 39.7399987277133], [-104.989987518116, 39.7399979471792], [-104.991640423145, 39.7400048545523], [-104.996464772284, 39.7400255812059], [-104.998082776545, 39.7400463208913], [-104.998854153624, 39.7400670069252], [-104.999957854312, 39.7400532113277], [-105.000146721395, 39.7400532085499], [-105.002788075196, 39.7400393934607], [-105.002790503953, 39.740039423538], [-105.013490051198, 39.7403157487975], [-105.015421411754, 39.7403917270524], [-105.018402333812, 39.7404676721465], [-105.022280153546, 39.7404952821874], [-105.023553679154, 39.7404470084212], [-105.023555710677, 39.7404469535994], [-105.025738499062, 39.7404124181174], [-105.029879564048, 39.7403364367599], [-105.032026204445, 39.7402880914088], [-105.032028033914, 39.7402880680615], [-105.034615337443, 39.7402811603575], [-105.044011869656, 39.7402880684776], [-105.053201771738, 39.7402949775259], [-105.053214258645, 39.7402958589603], [-105.053226217105, 39.7402983812147], [-105.053237425937, 39.7403024686933], [-105.053247545273, 39.7403079967139], [-105.053256268186, 39.7403147974871], [-105.053263328833, 39.7403226637497], [-105.053268512901, 39.740331356911], [-105.053271662239, 39.7403406133741], [-105.053272681804, 39.7403501517684], [-105.053271540779, 39.7403596819605], [-105.053268273674, 39.7403689140643], [-105.053262979109, 39.7403775674445], [-105.053255818587, 39.7403853797172], [-105.053247009448, 39.7403921139295], [-105.053236820162, 39.7403975648464], [-105.053225559781, 39.7404015670165], [-105.053213569746, 39.7404039983435], [-105.05320149918, 39.7404047865362], [-105.044011733204, 39.7403978780495], [-105.034615444109, 39.7403909700373], [-105.032029423377, 39.7403978738541], [-105.029883186841, 39.7404462109813], [-105.02574164516, 39.7405222004755], [-105.023559628105, 39.7405567238398], [-105.022285046743, 39.7406050375235], [-105.022281045823, 39.7406051023418], [-105.018400182181, 39.7405774708917], [-105.018398494214, 39.7405774432679], [-105.015415449244, 39.7405014398194], [-105.01348403436, 39.7404254585555], [-105.002787191671, 39.7401492082057], [-105.000147316597, 39.7401630169639], [-104.999959037239, 39.7401630159367], [-104.998854653402, 39.7401768248548], [-104.998853109874, 39.7401768308907], [-104.998851033459, 39.7401767986301], [-104.998079110486, 39.7401560931404], [-104.996463225623, 39.7401353832009], [-104.991639641219, 39.7401146616223], [-104.990010877945, 39.740107855279], [-104.989239587934, 39.7405594073786], [-104.989231827666, 39.7405633618893], [-104.989220563609, 39.7405673579334], [-104.989210812511, 39.7405694592163], [-104.98881555396, 39.7406316269052], [-104.988813312776, 39.7406319504195], [-104.988800956793, 39.7406327307693], [-104.988788612967, 39.7406318431183], [-104.988776656771, 39.7406293143166], [-104.988765451646, 39.7406252206995], [-104.988762377703, 39.7406237509512]]]}, "properties": {"name": "Colfax Avenue BRT", "source_name": "West Colfax Ave BRT", "plan": "Denver Moves Transit 2.0", "investment_level": "Medium Investment BRT"}}, {"type": "Feature", "geometry": {"type": "Polygon", "coordinates": [[[-104.940463733226, 39.7729666969807], [-104.940463767913, 39.7728839716722], [-104.940508660857, 39.7618773202853], [-104.940634958572, 39.7177951959098], [-104.940634835411, 39.7177926508848], [-104.940634848839, 39.7177895039499], [-104.940634474501, 39.717786134503], [-104.940626085818, 39.7150726616439], [-104.940625924904, 39.7150657832296], [-104.940625752311, 39.7150634415223], [-104.940625495586, 39.7150564392582], [-104.940634510588, 39.6847095289877], [-104.940481988983, 39.683100747709], [-104.940481801003, 39.6830963982463], [-104.940481891716, 39.6830939388727], [-104.940675741298, 39.6801577225722], [-104.939411524961, 39.6801511925048], [-104.939398624267, 39.6801502104777], [-104.936990534433, 39.679776782813], [-104.936979800145, 39.6797744283214], [-104.936968607757, 39.6797703296834], [-104.936967151456, 39.6797696525892], [-104.936706639945, 39.6796452062187], [-104.936697994835, 39.6796403451579], [-104.936689290762, 39.6796335356021], [-104.936682249289, 39.67962566218], [-104.936677084146, 39.6796169637006], [-104.936675086285, 39.6796118714837], [-104.936603220669, 39.679390633391], [-104.936602087303, 39.6793864658295], [-104.936601092726, 39.6793764795165], [-104.936628051593, 39.6784495910822], [-104.936629190952, 39.6784409552325], [-104.936632470512, 39.6784317261699], [-104.936637774777, 39.6784230778526], [-104.936644941952, 39.6784152725094], [-104.936653754492, 39.6784085468822], [-104.936663943825, 39.6784031059437], [-104.936675200897, 39.6783991148422], [-104.936687184367, 39.6783966953377], [-104.936698306041, 39.6783959226848], [-104.940679047371, 39.678361958292], [-104.940607581387, 39.6682938038611], [-104.940616566441, 39.665500015456], [-104.940616573769, 39.6602820051626], [-104.940482252037, 39.6593375504673], [-104.940481831681, 39.6593309291847], [-104.940616589918, 39.6530163199174], [-104.940617736797, 39.6530073579375], [-104.940621014645, 39.6529981286827], [-104.940626316498, 39.6529894801096], [-104.940633480633, 39.6529816744549], [-104.940642289601, 39.6529749484696], [-104.940652474934, 39.6529695071378], [-104.940663727702, 39.6529655156194], [-104.940675706695, 39.6529630956872], [-104.940688047785, 39.6529623203666], [-104.94070037559, 39.6529632130908], [-104.940712315128, 39.6529657468556], [-104.940723503462, 39.6529698451752], [-104.940733601349, 39.6529753830384], [-104.94074230251, 39.6529821923574], [-104.940749341767, 39.6529900656087], [-104.940754505455, 39.652998763989], [-104.940757636042, 39.6530080237427], [-104.940758634466, 39.6530178471006], [-104.940623964357, 39.659328994576], [-104.940758222827, 39.6602729966484], [-104.940758648165, 39.6602789964651], [-104.940758651983, 39.6655001520219], [-104.940749672404, 39.6682936702263], [-104.940821521594, 39.6784162195156], [-104.940821546755, 39.6801034546095], [-104.940821303932, 39.6801059880203], [-104.940820590031, 39.6801130767253], [-104.94062405366, 39.6830961248818], [-104.940776446246, 39.6847035101699], [-104.940776635673, 39.6847075344848], [-104.940767680105, 39.715056602825], [-104.940767687521, 39.7150635732801], [-104.940776229227, 39.717783702012], [-104.940776426326, 39.7177861897445], [-104.94077666691, 39.7177930252975], [-104.940650941617, 39.761877614594], [-104.940606258278, 39.7728293513814], [-104.942933915365, 39.7728427507856], [-104.942946170907, 39.772843642794], [-104.942958130943, 39.7728461762215], [-104.942969338542, 39.7728502741508], [-104.942979453874, 39.7728558115826], [-104.942988170133, 39.7728626204421], [-104.942995221679, 39.7728704932198], [-104.943000394477, 39.7728791911269], [-104.943003530714, 39.772888450422], [-104.94300452937, 39.7728983516874], [-104.942968593285, 39.7743347981596], [-104.942967448294, 39.774343603973], [-104.942964165081, 39.7743528328907], [-104.942962199452, 39.7743565073209], [-104.942369147283, 39.7753605874831], [-104.942575471446, 39.7754526616206], [-104.94359874925, 39.7754594411562], [-104.943610923554, 39.7754603327083], [-104.943622884061, 39.7754628660658], [-104.943634092117, 39.7754669639277], [-104.943644207879, 39.775472501297], [-104.943652924528, 39.7754793101005], [-104.943659976412, 39.7754871828306], [-104.943665149485, 39.7754958806999], [-104.943668285927, 39.7755051399681], [-104.94366929109, 39.77551467918], [-104.943668134592, 39.7755242081773], [-104.943664851416, 39.7755334371104], [-104.943659540669, 39.7755420854393], [-104.943652364345, 39.7755498909346], [-104.943643540264, 39.7755566168488], [-104.943633337351, 39.7755620582], [-104.943622065072, 39.7755660498267], [-104.94361006523, 39.7755684699526], [-104.943597615047, 39.7755692451321], [-104.942555482074, 39.7755623411946], [-104.942543307765, 39.7755614495333], [-104.942531347281, 39.7755589160663], [-104.942520470753, 39.7755549673785], [-104.942241826121, 39.7754306192003], [-104.942231545321, 39.7754250070733], [-104.942222828817, 39.7754181981644], [-104.942215777101, 39.775410325348], [-104.942210604214, 39.7754016274148], [-104.942207467969, 39.7753923681074], [-104.942206463007, 39.7753828288825], [-104.942207619701, 39.7753732998991], [-104.942210903062, 39.7753640710061], [-104.942212868759, 39.7753603965899], [-104.942826597529, 39.7743213133422], [-104.942860856809, 39.7729521415627], [-104.940606469813, 39.772939164556], [-104.940606490401, 39.7729668620018], [-104.940677904107, 39.7790141174737], [-104.940677903413, 39.7790150820838], [-104.940552145907, 39.7879273271922], [-104.94055161609, 39.7879334437798], [-104.940066528821, 39.790970616717], [-104.940065904699, 39.7909737696692], [-104.940062620325, 39.7909829984475], [-104.940057307963, 39.7909916465631], [-104.940050129656, 39.7909994517928], [-104.940041303284, 39.7910061773975], [-104.940031097842, 39.7910116184045], [-104.940019822873, 39.7910156096628], [-104.940007820262, 39.7910180294072], [-104.939995454854, 39.7910188046177], [-104.939983102774, 39.7910179118641], [-104.939971139744, 39.7910153781519], [-104.939959929416, 39.7910112799655], [-104.939949811702, 39.7910057423125], [-104.939941093481, 39.7909989332751], [-104.939934040454, 39.7909910603688], [-104.939928866701, 39.7909823623869], [-104.93992573006, 39.7909731030737], [-104.939924725185, 39.7909635638859], [-104.93992525832, 39.7909571879329], [-104.940409864982, 39.787923061994], [-104.940535588353, 39.7790145806586], [-104.940464773299, 39.7729758977461], [-104.940463733226, 39.7729666969807]], [[-104.940679432386, 39.6800479278633], [-104.940679433603, 39.6784717724629], [-104.936768583426, 39.6785051422267], [-104.936743394112, 39.6793710888409], [-104.936805903757, 39.6795635227113], [-104.937031021606, 39.6796710608026], [-104.939419294169, 39.6800414190723], [-104.940679432386, 39.6800479278633]]]}, "properties": {"name": "Colorado Blvd BRT", "source_name": "Colorado Blvd BRT", "plan": "Denver Moves Transit 2.0", "investment_level": "High Investment BRT"}}, {"type": "Feature", "geometry": {"type": "Polygon", "coordinates": [[[-105.025144206834, 39.6604461797515], [-105.025156548301, 39.6604453955632], [-105.025168878489, 39.6604462794245], [-105.025180822342, 39.6604488046003], [-105.025192016794, 39.6604528948662], [-105.025202122414, 39.6604584254553], [-105.025210832691, 39.6604652285001], [-105.025217882165, 39.6604730966685], [-105.025223056866, 39.6604817913116], [-105.025226198924, 39.6604910487875], [-105.025227213423, 39.6605006021059], [-105.025173320949, 39.6677616009563], [-105.025119428605, 39.6749940349794], [-105.025119429759, 39.6767639477487], [-105.025110448423, 39.6786308882654], [-105.025092486468, 39.6805181415654], [-105.025128425409, 39.6894773600446], [-105.025128432244, 39.6967490692553], [-105.025155387531, 39.7038818989594], [-105.025155388524, 39.7039994439201], [-105.025164376726, 39.7111728629193], [-105.025209306457, 39.7255244323137], [-105.025227276384, 39.7293243327714], [-105.025236263183, 39.7329440185307], [-105.025299136647, 39.7356584855898], [-105.025299144325, 39.7356599366097], [-105.025263229443, 39.7379938580761], [-105.025344036048, 39.7400857535461], [-105.02534406697, 39.7400873901963], [-105.025344066745, 39.7403559947148], [-105.02535302207, 39.7405969783256], [-105.025353041172, 39.7405993273611], [-105.025299153296, 39.7424089719848], [-105.02529915513, 39.7439348253329], [-105.025299157263, 39.7475748664387], [-105.025290181229, 39.7548404347619], [-105.025308152387, 39.7602547144657], [-105.02529917262, 39.7620155595811], [-105.025317143784, 39.7692866275204], [-105.025290201859, 39.77664671855], [-105.025272246399, 39.7874366466025], [-105.025299199692, 39.7939802963726], [-105.025298053595, 39.7939900566671], [-105.025294780305, 39.7939992878078], [-105.025289478235, 39.7940079397545], [-105.025282309115, 39.7940157501671], [-105.025273490546, 39.7940224821494], [-105.025263291288, 39.794027930534], [-105.025252020692, 39.7940319299464], [-105.025240020512, 39.7940343583741], [-105.02522765552, 39.7940351425329], [-105.025215301829, 39.7940342587209], [-105.025203335208, 39.7940317336711], [-105.025192119417, 39.794027643605], [-105.025181994538, 39.7940221132837], [-105.025173267664, 39.7940153105671], [-105.025166204762, 39.7940074427781], [-105.025161020209, 39.7939987485547], [-105.025157872173, 39.7939894915264], [-105.025156854864, 39.7939804142141], [-105.025129913064, 39.7874366851466], [-105.025147891059, 39.7766464923238], [-105.025174848588, 39.769286648111], [-105.025156890219, 39.7620155252014], [-105.025165875189, 39.7602546116526], [-105.025147914891, 39.7548405228683], [-105.025156905449, 39.7475748140506], [-105.025156911507, 39.7439348260877], [-105.025156912386, 39.7424081675358], [-105.025156930466, 39.7424070480714], [-105.02521078991, 39.7405986985516], [-105.025201859861, 39.7403583617143], [-105.025201830848, 39.7403567881191], [-105.025201831325, 39.7400882268319], [-105.025121016111, 39.7379959889577], [-105.025120987211, 39.737993882162], [-105.02515691257, 39.7356596293134], [-105.025094046269, 39.7329450892313], [-105.025085061494, 39.7293246378648], [-105.025067100248, 39.7255247653109], [-105.025022199431, 39.7111730490517], [-105.025013225494, 39.7039994976401], [-105.025013225949, 39.7038821184107], [-105.024986283945, 39.6967492886698], [-105.024986292784, 39.6894776118883], [-105.024950371003, 39.6805178493436], [-105.024968338996, 39.6786302682213], [-105.024977322852, 39.6767636861866], [-105.024977324956, 39.6749936491198], [-105.025031233596, 39.6677609701778], [-105.025085140665, 39.6604999858018], [-105.025086284029, 39.660490483534], [-105.025089551123, 39.6604812519509], [-105.025094843135, 39.6604725995932], [-105.02510199864, 39.6604647888127], [-105.025110800451, 39.6604580565163], [-105.02512098032, 39.6604526078802], [-105.025132229481, 39.6604486082861], [-105.025144206834, 39.6604461797515]]]}, "properties": {"name": "Federal Blvd BRT", "source_name": "Federal Blvd BRT", "plan": "Denver Moves Transit 2.0", "investment_level": "High Investment BRT"}}, {"type": "Feature", "geometry": {"type": "Polygon", "coordinates": [[[-105.020503129734, 39.7580856334061], [-105.015840333141, 39.7563688808427], [-105.015638940544, 39.7563998458803], [-105.015637022562, 39.756400119897], [-105.0156246641, 39.7564009030587], [-105.015612317159, 39.7564000182267], [-105.015601356601, 39.7563977709821], [-105.014612709319, 39.7561282977356], [-105.014606451049, 39.7561262868509], [-105.011677943174, 39.7550558455646], [-105.01167249287, 39.7550536253164], [-105.011668942241, 39.7550519137223], [-105.007976865433, 39.7531527027025], [-105.007970298256, 39.7531488825228], [-105.007966117178, 39.753145915346], [-105.007534926346, 39.7528144113747], [-105.007530387352, 39.7528105744374], [-105.007524728601, 39.7528045162628], [-105.006738442401, 39.7518290560067], [-105.004714085958, 39.7502520072424], [-105.003878787265, 39.7496097934737], [-105.003874246358, 39.7496059545797], [-105.003868375361, 39.7495996314278], [-105.00303512592, 39.7485525532853], [-105.002214905092, 39.7477505465686], [-105.000763959219, 39.7467313617807], [-105.000757093812, 39.7467258133289], [-105.000749724139, 39.7467175102791], [-105.000084658337, 39.7457777233232], [-105.000080107815, 39.7457698960506], [-105.000076965255, 39.745760638184], [-105.00007620475, 39.7457560253043], [-104.999852318773, 39.7437109091449], [-104.999280854518, 39.7423514808281], [-104.998770333473, 39.7414148523559], [-104.998017357468, 39.7401258912575], [-104.996833207282, 39.7384841123901], [-104.995674494138, 39.7369023640621], [-104.99059986569, 39.7300159501982], [-104.989830135007, 39.7290729168934], [-104.98941277875, 39.7286631550902], [-104.988458551694, 39.727922414829], [-104.987376499531, 39.7273171790912], [-104.986127878313, 39.7266263066738], [-104.986123283046, 39.7266235359228], [-104.986115315675, 39.7266174152207], [-104.985063912974, 39.7256705371125], [-104.9850627418, 39.7256694376585], [-104.982884418337, 39.7235665616593], [-104.978723076334, 39.7209108035358], [-104.976496006765, 39.7196105703669], [-104.974029656991, 39.7189163495836], [-104.973260173413, 39.7187580555421], [-104.973258439609, 39.7187576802994], [-104.971862601252, 39.7184410856179], [-104.970585639994, 39.7183178594303], [-104.970583252999, 39.7183178054548], [-104.970574755758, 39.7183172925519], [-104.970570776523, 39.7183171170232], [-104.959219657592, 39.7183245890137], [-104.959209037568, 39.7183239511438], [-104.957992646235, 39.7181794762012], [-104.951736612983, 39.7181725724284], [-104.95172411147, 39.7181716801267], [-104.951712160438, 39.7181691475386], [-104.951709921768, 39.7181684723982], [-104.950137868521, 39.7176709633457], [-104.950128907957, 39.7176675411861], [-104.950118800018, 39.7176620042558], [-104.950110089925, 39.7176551957854], [-104.95010304313, 39.7176473232735], [-104.950101289058, 39.7176447913517], [-104.949786879447, 39.717161098341], [-104.949783463965, 39.7171549324803], [-104.949780329324, 39.7171456731754], [-104.949779322727, 39.7171364661564], [-104.949779324134, 39.7162589013575], [-104.9497793261, 39.7146650803643], [-104.949700186274, 39.7139683709416], [-104.949362254187, 39.7135351152948], [-104.947342180574, 39.7118780170004], [-104.946867963811, 39.7116193395105], [-104.946449873884, 39.7115733938709], [-104.940723428276, 39.7115872008858], [-104.940719111909, 39.7115870947969], [-104.936559909942, 39.7113866901249], [-104.936551559415, 39.7113859025521], [-104.936539610087, 39.7113833684163], [-104.936528412682, 39.7113792697823], [-104.936518306722, 39.7113737316708], [-104.936515831758, 39.711372030122], [-104.935096632456, 39.7103489338], [-104.933222830462, 39.7097311506859], [-104.929554341591, 39.7086409276006], [-104.927196695531, 39.708206453905], [-104.921115382252, 39.7071284075432], [-104.921106548301, 39.7071263672313], [-104.921096581737, 39.7071228108848], [-104.919784426111, 39.7065558404065], [-104.919780212154, 39.7065538254873], [-104.914632773951, 39.7038929975295], [-104.912800120028, 39.7029391907501], [-104.912793798415, 39.7029354879622], [-104.912789677644, 39.7029325590497], [-104.91027432497, 39.7009973014141], [-104.903512192498, 39.6985822058924], [-104.899720814099, 39.697199658563], [-104.897358013073, 39.6963217528636], [-104.897352875462, 39.696319639622], [-104.897342774763, 39.6963140981155], [-104.897334072441, 39.6963072856866], [-104.897327033711, 39.6962994099544], [-104.89732187222, 39.6962907097979], [-104.897318745433, 39.6962814490275], [-104.897317747706, 39.6962719091442], [-104.897318909192, 39.6962623803269], [-104.897322194754, 39.6962531524194], [-104.89732750521, 39.6962445059307], [-104.897334678576, 39.6962367030335], [-104.897343497121, 39.6962299803955], [-104.897353692087, 39.6962245428985], [-104.897364954253, 39.6962205555864], [-104.89737694212, 39.696218140104], [-104.897389291294, 39.6962173693419], [-104.897401626145, 39.6962182665944], [-104.897413571476, 39.6962208047195], [-104.897419626571, 39.6962227938603], [-104.89978194967, 39.697100522092], [-104.903572380077, 39.6984827231503], [-104.910345400175, 39.7009017059792], [-104.910351511485, 39.7009041729972], [-104.910361613871, 39.7009097133773], [-104.910365734422, 39.7009126423771], [-104.91288519028, 39.7028510557162], [-104.914712019399, 39.7038018302099], [-104.919856921474, 39.7064613461997], [-104.921157107702, 39.7070231383594], [-104.92722907832, 39.7080995294171], [-104.92959194445, 39.7085349636295], [-104.929600578185, 39.7085370113369], [-104.933275082743, 39.7096290201751], [-104.933277464993, 39.7096297666161], [-104.935163925996, 39.7102517231324], [-104.935171943901, 39.7102548428934], [-104.935182049593, 39.7102603811228], [-104.935184524486, 39.7102620827004], [-104.936594209885, 39.7112783196147], [-104.940725630734, 39.7114773859003], [-104.946454891929, 39.7114635713546], [-104.946464802483, 39.7114641187767], [-104.946904976446, 39.7115124919904], [-104.946907732911, 39.711512837306], [-104.946919682635, 39.7115153703882], [-104.946930880669, 39.7115194680329], [-104.946935973236, 39.7115220021961], [-104.947430046085, 39.7117915098062], [-104.947435060361, 39.7117945128381], [-104.947440794015, 39.7117987207671], [-104.949470985925, 39.7134641177707], [-104.949473961523, 39.7134667184715], [-104.949480122497, 39.7134734241021], [-104.949830465964, 39.713922590465], [-104.949831351306, 39.7139237573931], [-104.949836520605, 39.7139324551888], [-104.94983965511, 39.713941714503], [-104.949840390246, 39.7139461232024], [-104.949921239831, 39.714657873892], [-104.949921511263, 39.7146626722201], [-104.949921512304, 39.7162589016493], [-104.94992151319, 39.7171234596415], [-104.950216421656, 39.7175771511737], [-104.951750932328, 39.718062778923], [-104.957998396449, 39.718069674022], [-104.958008942957, 39.7180703107621], [-104.959225252029, 39.7182147761654], [-104.970581380805, 39.7182079576425], [-104.970583824911, 39.7182078614607], [-104.973231398735, 39.718145707205], [-104.973233971755, 39.7181456826996], [-104.973246311427, 39.7181465719894], [-104.973251438874, 39.7181474460962], [-104.97387184407, 39.7182719401183], [-104.974420384828, 39.7183895248906], [-104.974424233727, 39.7183904418706], [-104.976768834306, 39.7190054095497], [-104.976770672145, 39.7190059131004], [-104.976781873116, 39.7190100078919], [-104.976788963767, 39.7190136691857], [-104.979169497775, 39.7204094186576], [-104.979171167457, 39.7204104285105], [-104.983438163292, 39.723070564962], [-104.983439513424, 39.7230714283398], [-104.983448477628, 39.7230784696046], [-104.985712481933, 39.7252343774533], [-104.985714298788, 39.7252361831557], [-104.986275731617, 39.7258187775308], [-104.987462444791, 39.7266216866585], [-104.989247552254, 39.7276289550152], [-104.989251611, 39.7276314251881], [-104.989257753113, 39.7276359651619], [-104.990012337379, 39.7282646682242], [-104.990014910443, 39.7282669337803], [-104.99001713999, 39.7282691185874], [-104.990619012261, 39.7288909074904], [-104.990622316649, 39.7288946316976], [-104.991278086584, 39.7297029478674], [-104.991279623598, 39.7297049342071], [-104.996534786428, 39.7368412237288], [-104.997720663664, 39.7384508914845], [-104.998915525621, 39.7400950622367], [-104.998918202007, 39.7400991329795], [-104.999547024316, 39.7411628967432], [-104.999548857409, 39.7411662946814], [-104.999917381496, 39.7419196595543], [-104.999918537622, 39.7419222854322], [-105.000637191259, 39.7437043790285], [-105.00063939258, 39.7437114622675], [-105.000640223976, 39.7437167716692], [-105.000782991616, 39.7452536124835], [-105.001483551918, 39.7463854615583], [-105.002709535869, 39.7476033097071], [-105.002713019903, 39.7476070892428], [-105.003405079187, 39.7484294329889], [-105.004254375574, 39.7494810695938], [-105.004984857205, 39.7500358475722], [-105.006925057701, 39.7514930066338], [-105.006930190822, 39.7514972955211], [-105.006933239365, 39.7515003417549], [-105.008255300169, 39.7529219597891], [-105.011573296707, 39.7546477517875], [-105.015874358079, 39.7562598992826], [-105.015880303856, 39.75626205112], [-105.015885553145, 39.7562640100511], [-105.020569453169, 39.7579883899751], [-105.020574720065, 39.7579905424102], [-105.020579152456, 39.7579927148635], [-105.022929453476, 39.7592409122292], [-105.025270535943, 39.760206250944], [-105.025272905008, 39.7602072728492], [-105.025283025012, 39.7602128032335], [-105.025291747689, 39.7602196060291], [-105.025298807202, 39.7602274739113], [-105.025303989275, 39.7602361682399], [-105.025307135814, 39.7602454253827], [-105.025308151865, 39.7602549639485], [-105.025307006714, 39.7602644937986], [-105.025303735, 39.7602737250575], [-105.025298435481, 39.7602823771152], [-105.025291269811, 39.7602901876282], [-105.025282455485, 39.7602969196972], [-105.025272261133, 39.7603023681522], [-105.02526099596, 39.7603063676166], [-105.025249001552, 39.7603087960762], [-105.025236642508, 39.7603095802461], [-105.025224294758, 39.7603086964236], [-105.025212333893, 39.7603061713425], [-105.025203492564, 39.7603031031315], [-105.022858888736, 39.7593363122877], [-105.022856519736, 39.7593352903335], [-105.022852087189, 39.7593331179671], [-105.020503129734, 39.7580856334061]], [[-104.973834918192, 39.7183779827616], [-104.973225537935, 39.7182557049709], [-104.971505345866, 39.7182960795543], [-104.971885886075, 39.7183326666831], [-104.971889856099, 39.7183331366498], [-104.971897138883, 39.7183344717346], [-104.973297629044, 39.7186521217416], [-104.97406932644, 39.7188108703847], [-104.974075374355, 39.7188123403199], [-104.976554899403, 39.7195102701834], [-104.976566278513, 39.7195144153247], [-104.976573253079, 39.7195180085628], [-104.978810056293, 39.7208239244233], [-104.978812473635, 39.7208254005448], [-104.982981013939, 39.72348575459], [-104.982990486259, 39.723493171004], [-104.985173021919, 39.72560010308], [-104.986217686739, 39.7265409063408], [-104.987459518079, 39.7272280230342], [-104.988546627684, 39.727836086537], [-104.988550925726, 39.7278386910749], [-104.988555327178, 39.7278418310662], [-104.989516524064, 39.7285879805686], [-104.989520837795, 39.7285916461393], [-104.989522003152, 39.7285927599329], [-104.989944211334, 39.7290072844727], [-104.98994847584, 39.7290119513696], [-104.990721027415, 39.7299584394257], [-104.990722662691, 39.729960546889], [-104.995798204979, 39.736848182597], [-104.996957193833, 39.7384303028881], [-104.998143086891, 39.7400744936702], [-104.998145782573, 39.7400786329644], [-104.998900367124, 39.7413703435626], [-104.998901088335, 39.7413716210895], [-104.999413128636, 39.742311033148], [-104.999414540174, 39.7423138339473], [-104.999415223315, 39.7423153806104], [-104.999990146569, 39.7436830299269], [-104.999992605857, 39.743690741144], [-104.999993366334, 39.7436953540276], [-105.000216683431, 39.7457352408867], [-105.000868524142, 39.7466563441852], [-105.002314968816, 39.7476723662286], [-105.002321834439, 39.7476779145876], [-105.002322924995, 39.7476789549735], [-105.003149374579, 39.7484870514837], [-105.003154154837, 39.7484923342961], [-105.003985166294, 39.7495365983892], [-105.004814776217, 39.7501744381385], [-105.006845133576, 39.7517561596277], [-105.006849342875, 39.7517597412225], [-105.006855001484, 39.751765799432], [-105.007641162505, 39.7527411025887], [-105.008061565528, 39.7530643127443], [-105.011743526502, 39.7549583192761], [-105.014664028994, 39.7560258339221], [-105.015619476785, 39.7562862553027], [-105.011506638289, 39.7547448376057], [-105.011501813026, 39.7547428487136], [-105.011497960118, 39.7547409800435], [-105.008165209625, 39.7530075127667], [-105.008158944735, 39.7530038496766], [-105.008150224619, 39.7529970455931], [-105.008147175958, 39.7529939993927], [-105.006821341784, 39.7515683221524], [-105.004885349929, 39.7501143224729], [-105.004148591861, 39.7495547772103], [-105.004143741083, 39.7495507010449], [-105.004138116424, 39.749544685173], [-105.003285071229, 39.7484883943633], [-105.002595363784, 39.7476688528535], [-105.001366522464, 39.74644816422], [-105.001360893558, 39.7464416654274], [-105.001358508064, 39.7464381453948], [-105.000648839146, 39.7452915768559], [-105.000646046653, 39.7452864014425], [-105.000642904041, 39.7452771435895], [-105.000642072626, 39.7452718341908], [-105.000498933098, 39.7437309575031], [-104.999783356205, 39.74195648685], [-104.999416631711, 39.7412068102783], [-104.998790031125, 39.7401468012021], [-104.997596820927, 39.7385048969483], [-104.996411150103, 39.7368955071607], [-104.991156753532, 39.7297602414101], [-104.990503352195, 39.7289548422294], [-104.989905474676, 39.7283371789699], [-104.989158111413, 39.7277144916134], [-104.987376000087, 39.7267089138588], [-104.987371517773, 39.7267061616625], [-104.986176335962, 39.7258975259554], [-104.986168468702, 39.7258912841003], [-104.986166151373, 39.7258890078653], [-104.985601097924, 39.7253026548187], [-104.983343001929, 39.7231523676618], [-104.979082675569, 39.7204963870102], [-104.97671217334, 39.7191065186893], [-104.97438042053, 39.7184949209409], [-104.973834918192, 39.7183779827616]]]}, "properties": {"name": "Speer/1st/Leetsdale BRT", "source_name": "Speer/1st/Leetsdale BRT", "plan": "Denver Moves Transit 2.0", "investment_level": "High Investment BRT"}}]}